HAWK-A                  
1 43765U 18099H   26068.67628545  .00008617  00000+0  36104-3 0  9995
2 43765  97.4051 122.2425 0034260 275.5523  84.1807 15.23231043397949
STARLINK-36420          
1 67347U 26003P   26068.50054338  .00027877  00000+0  10183-2 0  9993
2 67347  43.0005 228.2450 0001566 255.7732 104.2945 15.27592799  8798
